STARLINK-36421          
1 67464U 26008V   26025.58334491 -.01404655  55999-3 -41950-2 0  9993
2 67464  43.0017  95.3903 0001514 285.3805  51.6549 15.91527754  2867
STARLINK-36437          
1 67465U 26008W   26025.58334491 -.01411945  56552-3 -42092-2 0  9998
2 67465  43.0016  95.3829 0001519 282.5412  57.2518 15.91563592  2860
STARLINK-36520          
1 67466U 26008X   26025.58334491 -.01426297  57631-3 -42444-2 0  9995
2 67466  43.0015  95.3750 0001499 280.7857  62.1072 15.91600553  2862
STARLINK-36425          
1 67467U 26008Y   26025.58334491 -.01439437  58628-3 -42761-2 0  9995
2 67467  43.0015  95.3679 0001408 285.2279  60.4617 15.91635955  2861
STARLINK-36414          
1 67468U 26008Z   26025.58334491 -.01298229  49421-3 -34898-2 0  9991
2 67468  43.0016  95.2616 0001707 283.6166 104.0393 15.93519928  2861
STARLINK-36441          
1 67469U 26008AA  26025.58334491 -.01398753  56747-3 -37302-2 0  9997
2 67469  43.0017  95.2155 0001551 289.2647 116.4149 15.93686625  2869
STARLINK-36454          
1 67470U 26008AB  26025.58334491 -.01441307  59994-3 -38309-2 0  9998
2 67470  43.0015  95.1962 0001489 287.7944 125.4461 15.93755928  2867
STARLINK-36334          
1 67471U 26008AC  26025.58334491 -.01352529  53316-3 -36212-2 0  9999
2 67471  43.0015  95.2396 0001555 285.8340 110.3236 15.93604873  2868
STARLINK-36269          
1 67472U 26008AD  26025.58334491 -.01510831  65469-3 -39996-2 0  9996
2 67472  43.0013  95.1697 0001464 288.2920 135.2646 15.93842770  2883
STARLINK-36408          
1 67473U 26008AE  26025.58334491 -.01609030  73580-3 -42409-2 0  9993
2 67473  43.0016  95.1311 0001332 291.4403 147.5010 15.93940276  2887
ALSAT-3A                
1 67474U 26009A   26025.59817698  .00006160  00000+0  41518-3 0  9997
2 67474  97.1800  99.3027 0099245 186.5281 173.4661 15.02991288  1571
CZ-2C R/B               
1 67475U 26009B   26025.59014073  .00010239  00000+0  43505-3 0  9994
2 67475  97.4703 100.3180 0011360 220.4459 139.5935 15.23188713  1590
