CCSDS_OMM_VERS = 2.0
CREATION_DATE  = 
ORIGINATOR     = 

OBJECT_NAME    = STARLINK-36421
OBJECT_ID      = 2026-008V
CENTER_NAME    = EARTH
REF_FRAME      = TEME
TIME_SYSTEM    = UTC
MEAN_ELEMENT_THEORY = SGP/SGP4

EPOCH          = 2026-01-25T14:00:01.000224
MEAN_MOTION    = 15.91527754
ECCENTRICITY   = .00015149
INCLINATION    = 43.0017
RA_OF_ASC_NODE = 95.3903
ARG_OF_PERICENTER = 285.3805
MEAN_ANOMALY   = 51.6549

EPHEMERIS_TYPE = 0
CLASSIFICATION_TYPE = U
NORAD_CAT_ID   = 67464
ELEMENT_SET_NO = 999
REV_AT_EPOCH   = 286
BSTAR          = -.41950107E-2
MEAN_MOTION_DOT = -.1404655E-1
MEAN_MOTION_DDOT = .55999111E-3

CCSDS_OMM_VERS = 2.0
CREATION_DATE  = 
ORIGINATOR     = 

OBJECT_NAME    = STARLINK-36437
OBJECT_ID      = 2026-008W
CENTER_NAME    = EARTH
REF_FRAME      = TEME
TIME_SYSTEM    = UTC
MEAN_ELEMENT_THEORY = SGP/SGP4

EPOCH          = 2026-01-25T14:00:01.000224
MEAN_MOTION    = 15.91563592
ECCENTRICITY   = .00015191
INCLINATION    = 43.0016
RA_OF_ASC_NODE = 95.3829
ARG_OF_PERICENTER = 282.5412
MEAN_ANOMALY   = 57.2518

EPHEMERIS_TYPE = 0
CLASSIFICATION_TYPE = U
NORAD_CAT_ID   = 67465
ELEMENT_SET_NO = 999
REV_AT_EPOCH   = 286
BSTAR          = -.42092128E-2
MEAN_MOTION_DOT = -.1411945E-1
MEAN_MOTION_DDOT = .56552433E-3

CCSDS_OMM_VERS = 2.0
CREATION_DATE  = 
ORIGINATOR     = 

OBJECT_NAME    = STARLINK-36520
OBJECT_ID      = 2026-008X
CENTER_NAME    = EARTH
REF_FRAME      = TEME
TIME_SYSTEM    = UTC
MEAN_ELEMENT_THEORY = SGP/SGP4

EPOCH          = 2026-01-25T14:00:01.000224
MEAN_MOTION    = 15.91600553
ECCENTRICITY   = .00014992
INCLINATION    = 43.0015
RA_OF_ASC_NODE = 95.3750
ARG_OF_PERICENTER = 280.7857
MEAN_ANOMALY   = 62.1072

EPHEMERIS_TYPE = 0
CLASSIFICATION_TYPE = U
NORAD_CAT_ID   = 67466
ELEMENT_SET_NO = 999
REV_AT_EPOCH   = 286
BSTAR          = -.42443762E-2
MEAN_MOTION_DOT = -.1426297E-1
MEAN_MOTION_DDOT = .57631175E-3

CCSDS_OMM_VERS = 2.0
CREATION_DATE  = 
ORIGINATOR     = 

OBJECT_NAME    = STARLINK-36425
OBJECT_ID      = 2026-008Y
CENTER_NAME    = EARTH
REF_FRAME      = TEME
TIME_SYSTEM    = UTC
MEAN_ELEMENT_THEORY = SGP/SGP4

EPOCH          = 2026-01-25T14:00:01.000224
MEAN_MOTION    = 15.91635955
ECCENTRICITY   = .00014089
INCLINATION    = 43.0015
RA_OF_ASC_NODE = 95.3679
ARG_OF_PERICENTER = 285.2279
MEAN_ANOMALY   = 60.4617

EPHEMERIS_TYPE = 0
CLASSIFICATION_TYPE = U
NORAD_CAT_ID   = 67467
ELEMENT_SET_NO = 999
REV_AT_EPOCH   = 286
BSTAR          = -.4276141E-2
MEAN_MOTION_DOT = -.1439437E-1
MEAN_MOTION_DDOT = .58628318E-3

CCSDS_OMM_VERS = 2.0
CREATION_DATE  = 
ORIGINATOR     = 

OBJECT_NAME    = STARLINK-36414
OBJECT_ID      = 2026-008Z
CENTER_NAME    = EARTH
REF_FRAME      = TEME
TIME_SYSTEM    = UTC
MEAN_ELEMENT_THEORY = SGP/SGP4

EPOCH          = 2026-01-25T14:00:01.000224
MEAN_MOTION    = 15.93519928
ECCENTRICITY   = .00017073
INCLINATION    = 43.0016
RA_OF_ASC_NODE = 95.2616
ARG_OF_PERICENTER = 283.6166
MEAN_ANOMALY   = 104.0393

EPHEMERIS_TYPE = 0
CLASSIFICATION_TYPE = U
NORAD_CAT_ID   = 67468
ELEMENT_SET_NO = 999
REV_AT_EPOCH   = 286
BSTAR          = -.34897875E-2
MEAN_MOTION_DOT = -.1298229E-1
MEAN_MOTION_DDOT = .49421042E-3

CCSDS_OMM_VERS = 2.0
CREATION_DATE  = 
ORIGINATOR     = 

OBJECT_NAME    = STARLINK-36441
OBJECT_ID      = 2026-008AA
CENTER_NAME    = EARTH
REF_FRAME      = TEME
TIME_SYSTEM    = UTC
MEAN_ELEMENT_THEORY = SGP/SGP4

EPOCH          = 2026-01-25T14:00:01.000224
MEAN_MOTION    = 15.93686625
ECCENTRICITY   = .00015512
INCLINATION    = 43.0017
RA_OF_ASC_NODE = 95.2155
ARG_OF_PERICENTER = 289.2647
MEAN_ANOMALY   = 116.4149

EPHEMERIS_TYPE = 0
CLASSIFICATION_TYPE = U
NORAD_CAT_ID   = 67469
ELEMENT_SET_NO = 999
REV_AT_EPOCH   = 286
BSTAR          = -.37301857E-2
MEAN_MOTION_DOT = -.1398753E-1
MEAN_MOTION_DDOT = .5674749E-3

CCSDS_OMM_VERS = 2.0
CREATION_DATE  = 
ORIGINATOR     = 

OBJECT_NAME    = STARLINK-36454
OBJECT_ID      = 2026-008AB
CENTER_NAME    = EARTH
REF_FRAME      = TEME
TIME_SYSTEM    = UTC
MEAN_ELEMENT_THEORY = SGP/SGP4

EPOCH          = 2026-01-25T14:00:01.000224
MEAN_MOTION    = 15.93755928
ECCENTRICITY   = .0001489
INCLINATION    = 43.0015
RA_OF_ASC_NODE = 95.1962
ARG_OF_PERICENTER = 287.7944
MEAN_ANOMALY   = 125.4461

EPHEMERIS_TYPE = 0
CLASSIFICATION_TYPE = U
NORAD_CAT_ID   = 67470
ELEMENT_SET_NO = 999
REV_AT_EPOCH   = 286
BSTAR          = -.38309469E-2
MEAN_MOTION_DOT = -.1441307E-1
MEAN_MOTION_DDOT = .59994155E-3

CCSDS_OMM_VERS = 2.0
CREATION_DATE  = 
ORIGINATOR     = 

OBJECT_NAME    = STARLINK-36334
OBJECT_ID      = 2026-008AC
CENTER_NAME    = EARTH
REF_FRAME      = TEME
TIME_SYSTEM    = UTC
MEAN_ELEMENT_THEORY = SGP/SGP4

EPOCH          = 2026-01-25T14:00:01.000224
MEAN_MOTION    = 15.93604873
ECCENTRICITY   = .00015554
INCLINATION    = 43.0015
RA_OF_ASC_NODE = 95.2396
ARG_OF_PERICENTER = 285.8340
MEAN_ANOMALY   = 110.3236

EPHEMERIS_TYPE = 0
CLASSIFICATION_TYPE = U
NORAD_CAT_ID   = 67471
ELEMENT_SET_NO = 999
REV_AT_EPOCH   = 286
BSTAR          = -.36211802E-2
MEAN_MOTION_DOT = -.1352529E-1
MEAN_MOTION_DDOT = .53315891E-3

CCSDS_OMM_VERS = 2.0
CREATION_DATE  = 
ORIGINATOR     = 

OBJECT_NAME    = STARLINK-36269
OBJECT_ID      = 2026-008AD
CENTER_NAME    = EARTH
REF_FRAME      = TEME
TIME_SYSTEM    = UTC
MEAN_ELEMENT_THEORY = SGP/SGP4

EPOCH          = 2026-01-25T14:00:01.000224
MEAN_MOTION    = 15.93842770
ECCENTRICITY   = .00014644
INCLINATION    = 43.0013
RA_OF_ASC_NODE = 95.1697
ARG_OF_PERICENTER = 288.2920
MEAN_ANOMALY   = 135.2646

EPHEMERIS_TYPE = 0
CLASSIFICATION_TYPE = U
NORAD_CAT_ID   = 67472
ELEMENT_SET_NO = 999
REV_AT_EPOCH   = 288
BSTAR          = -.39995548E-2
MEAN_MOTION_DOT = -.1510831E-1
MEAN_MOTION_DDOT = .6546926E-3

CCSDS_OMM_VERS = 2.0
CREATION_DATE  = 
ORIGINATOR     = 

OBJECT_NAME    = STARLINK-36408
OBJECT_ID      = 2026-008AE
CENTER_NAME    = EARTH
REF_FRAME      = TEME
TIME_SYSTEM    = UTC
MEAN_ELEMENT_THEORY = SGP/SGP4

EPOCH          = 2026-01-25T14:00:01.000224
MEAN_MOTION    = 15.93940276
ECCENTRICITY   = .00013328
INCLINATION    = 43.0016
RA_OF_ASC_NODE = 95.1311
ARG_OF_PERICENTER = 291.4403
MEAN_ANOMALY   = 147.5010

EPHEMERIS_TYPE = 0
CLASSIFICATION_TYPE = U
NORAD_CAT_ID   = 67473
ELEMENT_SET_NO = 999
REV_AT_EPOCH   = 288
BSTAR          = -.42409098E-2
MEAN_MOTION_DOT = -.160903E-1
MEAN_MOTION_DDOT = .73580133E-3

CCSDS_OMM_VERS = 2.0
CREATION_DATE  = 
ORIGINATOR     = 

OBJECT_NAME    = ALSAT-3A
OBJECT_ID      = 2026-009A
CENTER_NAME    = EARTH
REF_FRAME      = TEME
TIME_SYSTEM    = UTC
MEAN_ELEMENT_THEORY = SGP/SGP4

EPOCH          = 2026-01-25T14:21:22.491072
MEAN_MOTION    = 15.02991288
ECCENTRICITY   = .00992454
INCLINATION    = 97.1800
RA_OF_ASC_NODE = 99.3027
ARG_OF_PERICENTER = 186.5281
MEAN_ANOMALY   = 173.4661

EPHEMERIS_TYPE = 0
CLASSIFICATION_TYPE = U
NORAD_CAT_ID   = 67474
ELEMENT_SET_NO = 999
REV_AT_EPOCH   = 157
BSTAR          = .41518348E-3
MEAN_MOTION_DOT = .616E-4
MEAN_MOTION_DDOT = 0

CCSDS_OMM_VERS = 2.0
CREATION_DATE  = 
ORIGINATOR     = 

OBJECT_NAME    = CZ-2C R/B
OBJECT_ID      = 2026-009B
CENTER_NAME    = EARTH
REF_FRAME      = TEME
TIME_SYSTEM    = UTC
MEAN_ELEMENT_THEORY = SGP/SGP4

EPOCH          = 2026-01-25T14:09:48.159072
MEAN_MOTION    = 15.23188713
ECCENTRICITY   = .00113608
INCLINATION    = 97.4703
RA_OF_ASC_NODE = 100.3180
ARG_OF_PERICENTER = 220.4459
MEAN_ANOMALY   = 139.5935

EPHEMERIS_TYPE = 0
CLASSIFICATION_TYPE = U
NORAD_CAT_ID   = 67475
ELEMENT_SET_NO = 999
REV_AT_EPOCH   = 159
BSTAR          = .43505466E-3
MEAN_MOTION_DOT = .10239E-3
MEAN_MOTION_DDOT = 0

